STARLINK-30995          
1 58474U 23186B   26073.95717772  .02102812  37643-2  24332-2 0  9998
2 58474  42.9739 185.5122 0019902   3.0665 357.0335 16.08447727129261
INTUITION-1             
1 58565U 23174CW  26073.91018343  .00882120  39407-3  14499-2 0  9999
2 58565  97.3662 170.8502 0004694 266.2922  93.7821 16.03254698131716
STARLINK-31145          
1 58768U 24011D   26073.43548537  .01343954  10733-2  19504-2 0  9995
2 58768  53.1191 337.6506 0007576 135.6425 224.5215 16.04826973121187
SENTRY                  
1 59140U 24043AU  26073.90145192  .00720727  24279-3  13694-2 0  9998
2 59140  97.5275 228.8835 0004765 267.5229  92.5504 16.00717180113895
OBJECT B                
1 59678U 24085B   26073.05313317  .01193912  86695-3  14511-2 0  9992
2 59678  97.3337 165.9181 0014792 295.9669  64.0090 16.08100851104115
OBJECT D                
1 59813U 24095D   26070.44840456  .01128541  68436-3  19140-2 0  9995
2 59813  97.5273 174.9254 0007283 274.6865  85.3582 16.02763372101179
COSMOS 2591             
1 65267U 25182A   26073.01390633  .00096916  54361-5  23293-3 0  9994
2 65267  96.5877   6.1655 0009716 143.1897 217.0051 15.96460645 32512
COSMOS 2592             
1 65268U 25182B   26071.96391849  .00003779  18530-5  10448-4 0  9999
2 65268  96.5862   5.0932 0010842 143.4735 216.7285 15.96392648 32342
COSMOS 2593             
1 65269U 25182C   26072.16767109  .00029750  21919-5  72839-4 0  9993
2 65269  96.5899   5.2622 0008679 148.7624 211.4172 15.96384763 32370
COSMOS 2594             
1 65270U 25182D   26073.12361432 -.00000282  18493-5  72685-6 0  9995
2 65270  96.5909   6.1726 0008855 143.1415 217.0474 15.96378301 32549
CZ-4B R/B               
1 67132U 25300B   26073.51531642  .02220932  25345-5  79484-3 0  9993
2 67132  97.5181 161.1900 0037670  37.8946 322.4984 16.22939925 13970
SL-4 R/B                
1 67235U 25310B   26074.08367183  .02097807  26356-5  61789-3 0  9993
2 67235  97.9329  95.0222 0076412 139.5090 221.1918 16.19594901 12508
ELECTRON KICK STAGE R/B 
1 67616U 26019C   26073.86908317  .02184651  23070-5  19767-2 0  9990
2 67616  97.3865 201.5698 0062817  92.5562 268.2914 16.08221768  6885
STARLINK-36618          
1 67847U 26033AC  26073.92071247  .00403936  69819-4  12013-2 0  9997
2 67847  42.9779 236.5266 0002674 289.8116  70.2470 15.91659854  5486
STARLINK-36335          
1 68015U 26040A   26073.91668981 -.01403268  56949-3 -40735-2 0  9991
2 68015  97.2711  22.5371 0001263 104.4135 209.8524 15.92990038  3211
STARLINK-36923          
1 68016U 26040B   26073.91668981 -.01509303  65272-3 -43502-2 0  9993
2 68016  97.2716  22.5412 0001147  88.0314 234.6350 15.93142662  3261
