[{"OBJECT_NAME":"STARLINK-30995","OBJECT_ID":"2023-186B","EPOCH":"2026-03-14T22:58:20.155008","MEAN_MOTION":16.08447727,"ECCENTRICITY":0.0019902,"INCLINATION":42.9739,"RA_OF_ASC_NODE":185.5122,"ARG_OF_PERICENTER":3.0665,"MEAN_ANOMALY":357.0335,"EPHEMERIS_TYPE":0,"CLASSIFICATION_TYPE":"U","NORAD_CAT_ID":58474,"ELEMENT_SET_NO":999,"REV_AT_EPOCH":12926,"BSTAR":0.0024332,"MEAN_MOTION_DOT":0.02102812,"MEAN_MOTION_DDOT":0.0037643},{"OBJECT_NAME":"INTUITION-1","OBJECT_ID":"2023-174CW","EPOCH":"2026-03-14T21:50:39.848352","MEAN_MOTION":16.03254698,"ECCENTRICITY":0.00046942,"INCLINATION":97.3662,"RA_OF_ASC_NODE":170.8502,"ARG_OF_PERICENTER":266.2922,"MEAN_ANOMALY":93.7821,"EPHEMERIS_TYPE":0,"CLASSIFICATION_TYPE":"U","NORAD_CAT_ID":58565,"ELEMENT_SET_NO":999,"REV_AT_EPOCH":13171,"BSTAR":0.0014498527,"MEAN_MOTION_DOT":0.0088212,"MEAN_MOTION_DDOT":0.00039407128},{"OBJECT_NAME":"STARLINK-31145","OBJECT_ID":"2024-011D","EPOCH":"2026-03-14T10:27:05.935968","MEAN_MOTION":16.04826973,"ECCENTRICITY":0.00075767,"INCLINATION":53.1191,"RA_OF_ASC_NODE":337.6506,"ARG_OF_PERICENTER":135.6425,"MEAN_ANOMALY":224.5215,"EPHEMERIS_TYPE":0,"CLASSIFICATION_TYPE":"U","NORAD_CAT_ID":58768,"ELEMENT_SET_NO":999,"REV_AT_EPOCH":12118,"BSTAR":0.0019503563,"MEAN_MOTION_DOT":0.01343954,"MEAN_MOTION_DDOT":0.001073317},{"OBJECT_NAME":"SENTRY","OBJECT_ID":"2024-043AU","EPOCH":"2026-03-14T21:38:05.445888","MEAN_MOTION":16.0071718,"ECCENTRICITY":0.00047653,"INCLINATION":97.5275,"RA_OF_ASC_NODE":228.8835,"ARG_OF_PERICENTER":267.5229,"MEAN_ANOMALY":92.5504,"EPHEMERIS_TYPE":0,"CLASSIFICATION_TYPE":"U","NORAD_CAT_ID":59140,"ELEMENT_SET_NO":999,"REV_AT_EPOCH":11389,"BSTAR":0.0013693753,"MEAN_MOTION_DOT":0.00720727,"MEAN_MOTION_DDOT":0.00024278802},{"OBJECT_NAME":"OBJECT B","OBJECT_ID":"2024-085B","EPOCH":"2026-03-14T01:16:30.705888","MEAN_MOTION":16.08100851,"ECCENTRICITY":0.00147927,"INCLINATION":97.3337,"RA_OF_ASC_NODE":165.9181,"ARG_OF_PERICENTER":295.9669,"MEAN_ANOMALY":64.009,"EPHEMERIS_TYPE":0,"CLASSIFICATION_TYPE":"U","NORAD_CAT_ID":59678,"ELEMENT_SET_NO":999,"REV_AT_EPOCH":10411,"BSTAR":0.0014511063,"MEAN_MOTION_DOT":0.01193912,"MEAN_MOTION_DDOT":0.00086695227},{"OBJECT_NAME":"OBJECT D","OBJECT_ID":"2024-095D","EPOCH":"2026-03-11T10:45:42.153984","MEAN_MOTION":16.02763372,"ECCENTRICITY":0.0007283,"INCLINATION":97.5273,"RA_OF_ASC_NODE":174.9254,"ARG_OF_PERICENTER":274.6865,"MEAN_ANOMALY":85.3582,"EPHEMERIS_TYPE":0,"CLASSIFICATION_TYPE":"U","NORAD_CAT_ID":59813,"ELEMENT_SET_NO":999,"REV_AT_EPOCH":10117,"BSTAR":0.001914,"MEAN_MOTION_DOT":0.01128541,"MEAN_MOTION_DDOT":0.00068436},{"OBJECT_NAME":"COSMOS 2591","OBJECT_ID":"2025-182A","EPOCH":"2026-03-14T00:20:01.506912","MEAN_MOTION":15.96460645,"ECCENTRICITY":0.00097162,"INCLINATION":96.5877,"RA_OF_ASC_NODE":6.1655,"ARG_OF_PERICENTER":143.1897,"MEAN_ANOMALY":217.0051,"EPHEMERIS_TYPE":0,"CLASSIFICATION_TYPE":"U","NORAD_CAT_ID":65267,"ELEMENT_SET_NO":999,"REV_AT_EPOCH":3251,"BSTAR":0.00023292688,"MEAN_MOTION_DOT":0.00096916,"MEAN_MOTION_DDOT":5.436141e-6},{"OBJECT_NAME":"COSMOS 2592","OBJECT_ID":"2025-182B","EPOCH":"2026-03-12T23:08:02.557536","MEAN_MOTION":15.96392648,"ECCENTRICITY":0.00108429,"INCLINATION":96.5862,"RA_OF_ASC_NODE":5.0932,"ARG_OF_PERICENTER":143.4735,"MEAN_ANOMALY":216.7285,"EPHEMERIS_TYPE":0,"CLASSIFICATION_TYPE":"U","NORAD_CAT_ID":65268,"ELEMENT_SET_NO":999,"REV_AT_EPOCH":3234,"BSTAR":1.0447877e-5,"MEAN_MOTION_DOT":3.779e-5,"MEAN_MOTION_DDOT":1.853032e-6},{"OBJECT_NAME":"COSMOS 2593","OBJECT_ID":"2025-182C","EPOCH":"2026-03-13T04:01:26.782176","MEAN_MOTION":15.96384763,"ECCENTRICITY":0.00086792,"INCLINATION":96.5899,"RA_OF_ASC_NODE":5.2622,"ARG_OF_PERICENTER":148.7624,"MEAN_ANOMALY":211.4172,"EPHEMERIS_TYPE":0,"CLASSIFICATION_TYPE":"U","NORAD_CAT_ID":65269,"ELEMENT_SET_NO":999,"REV_AT_EPOCH":3237,"BSTAR":7.2839069e-5,"MEAN_MOTION_DOT":0.0002975,"MEAN_MOTION_DDOT":2.191883e-6},{"OBJECT_NAME":"COSMOS 2594","OBJECT_ID":"2025-182D","EPOCH":"2026-03-14T02:58:00.277248","MEAN_MOTION":15.96378301,"ECCENTRICITY":0.00088551,"INCLINATION":96.5909,"RA_OF_ASC_NODE":6.1726,"ARG_OF_PERICENTER":143.1415,"MEAN_ANOMALY":217.0474,"EPHEMERIS_TYPE":0,"CLASSIFICATION_TYPE":"U","NORAD_CAT_ID":65270,"ELEMENT_SET_NO":999,"REV_AT_EPOCH":3254,"BSTAR":7.26854e-7,"MEAN_MOTION_DOT":-2.82e-6,"MEAN_MOTION_DDOT":1.849309e-6},{"OBJECT_NAME":"CZ-4B R/B","OBJECT_ID":"2025-300B","EPOCH":"2026-03-14T12:22:03.338688","MEAN_MOTION":16.22939925,"ECCENTRICITY":0.00376708,"INCLINATION":97.5181,"RA_OF_ASC_NODE":161.19,"ARG_OF_PERICENTER":37.8946,"MEAN_ANOMALY":322.4984,"EPHEMERIS_TYPE":0,"CLASSIFICATION_TYPE":"U","NORAD_CAT_ID":67132,"ELEMENT_SET_NO":999,"REV_AT_EPOCH":1397,"BSTAR":0.00079484286,"MEAN_MOTION_DOT":0.02220932,"MEAN_MOTION_DDOT":2.534453e-6},{"OBJECT_NAME":"SL-4 R/B","OBJECT_ID":"2025-310B","EPOCH":"2026-03-15T02:00:29.246112","MEAN_MOTION":16.19594901,"ECCENTRICITY":0.0076412,"INCLINATION":97.9329,"RA_OF_ASC_NODE":95.0222,"ARG_OF_PERICENTER":139.509,"MEAN_ANOMALY":221.1918,"EPHEMERIS_TYPE":0,"CLASSIFICATION_TYPE":"U","NORAD_CAT_ID":67235,"ELEMENT_SET_NO":999,"REV_AT_EPOCH":1250,"BSTAR":0.00061789,"MEAN_MOTION_DOT":0.02097807,"MEAN_MOTION_DDOT":2.6356e-6},{"OBJECT_NAME":"ELECTRON KICK STAGE R/B","OBJECT_ID":"2026-019C","EPOCH":"2026-03-14T20:51:28.785888","MEAN_MOTION":16.08221768,"ECCENTRICITY":0.0062817,"INCLINATION":97.3865,"RA_OF_ASC_NODE":201.5698,"ARG_OF_PERICENTER":92.5562,"MEAN_ANOMALY":268.2914,"EPHEMERIS_TYPE":0,"CLASSIFICATION_TYPE":"U","NORAD_CAT_ID":67616,"ELEMENT_SET_NO":999,"REV_AT_EPOCH":688,"BSTAR":0.0019766564,"MEAN_MOTION_DOT":0.02184651,"MEAN_MOTION_DDOT":2.307022e-6},{"OBJECT_NAME":"STARLINK-36618","OBJECT_ID":"2026-033AC","EPOCH":"2026-03-14T22:05:49.557408","MEAN_MOTION":15.91659854,"ECCENTRICITY":0.00026748,"INCLINATION":42.9779,"RA_OF_ASC_NODE":236.5266,"ARG_OF_PERICENTER":289.8116,"MEAN_ANOMALY":70.247,"EPHEMERIS_TYPE":0,"CLASSIFICATION_TYPE":"U","NORAD_CAT_ID":67847,"ELEMENT_SET_NO":999,"REV_AT_EPOCH":548,"BSTAR":0.0012013363,"MEAN_MOTION_DOT":0.00403936,"MEAN_MOTION_DDOT":6.981852e-5},{"OBJECT_NAME":"STARLINK-36335","OBJECT_ID":"2026-040A","EPOCH":"2026-03-14T22:00:01.999584","MEAN_MOTION":15.92990038,"ECCENTRICITY":0.00012635,"INCLINATION":97.2711,"RA_OF_ASC_NODE":22.5371,"ARG_OF_PERICENTER":104.4135,"MEAN_ANOMALY":209.8524,"EPHEMERIS_TYPE":0,"CLASSIFICATION_TYPE":"U","NORAD_CAT_ID":68015,"ELEMENT_SET_NO":999,"REV_AT_EPOCH":321,"BSTAR":-0.0040735293,"MEAN_MOTION_DOT":-0.01403268,"MEAN_MOTION_DDOT":0.00056948561},{"OBJECT_NAME":"STARLINK-36923","OBJECT_ID":"2026-040B","EPOCH":"2026-03-14T22:00:01.999584","MEAN_MOTION":15.93142662,"ECCENTRICITY":0.00011471,"INCLINATION":97.2716,"RA_OF_ASC_NODE":22.5412,"ARG_OF_PERICENTER":88.0314,"MEAN_ANOMALY":234.635,"EPHEMERIS_TYPE":0,"CLASSIFICATION_TYPE":"U","NORAD_CAT_ID":68016,"ELEMENT_SET_NO":999,"REV_AT_EPOCH":326,"BSTAR":-0.004350202,"MEAN_MOTION_DOT":-0.01509303,"MEAN_MOTION_DDOT":0.00065271823}]
